"neo","pha","sats","H","diameter","e","a","q","i","om","w","ad","per_y","data_arc","n_obs_used","condition_code"
N,N,1,6.81,167.536,0.0987,2.911,2.624,13.70,65.98,357.83,3.20,4.97,61846,11965,0
N,N,1,6.88,267.080,0.2159,3.159,2.477,26.32,30.80,61.77,3.84,5.62,59565,3326,0
N,N,1,7.64,205.495,0.2740,2.763,2.006,15.78,178.06,46.11,3.52,4.59,57545,7336,0
N,N,2,7.79,202.327,0.0832,2.72,2.494,6.61,147.59,87.49,2.95,4.49,57507,12144,0
N,N,2,6.96,253.051,0.0939,3.477,3.151,10.88,73.01,264.40,3.80,6.48,50618,6582,0
N,N,1,8.46,115.974,0.1689,3.153,2.620,2.21,69.93,245.24,3.69,5.6,57465,6473,0
N,N,2,7.91,154.155,0.1400,2.759,2.373,8.55,4.01,275.68,3.14,4.58,56222,4473,0
N,N,2,7.13,210.370,0.0653,3.486,3.258,10.00,172.59,305.22,3.71,6.51,56637,5584,0
N,N,1,7.47,209.00,0.1257,3.453,3.019,7.57,72.88,296.93,3.89,6.42,55389,7519,0
N,N,3,7.48,180.652,0.2097,3.126,2.471,22.78,144.99,237.75,3.78,5.53,47426,16037,0
N,N,2,7.08,122,0.2510,2.793,2.092,13.12,215.31,179.69,3.49,4.67,52503,5107,0
N,N,1,10.11,32,0.0444,2.861,2.734,1.13,323.59,113.88,2.99,4.84,50685,11854,0
N,N,1,8.84,132.385,0.1443,3.05,2.610,7.99,303.87,55.71,3.49,5.33,47361,8053,0
N,N,1,9.79,18.648,0.0859,2.287,2.091,1.77,151.34,187.13,2.48,3.46,48354,5306,0
N,N,1,9.15,84.787,0.1797,3.144,2.579,1.67,171.86,180.88,3.71,5.57,47501,9742,0
N,N,1,8.27,140.362,0.1399,5.208,4.480,22.06,44.36,308.41,5.94,11.9,2723,2141,0
N,N,1,7.41,225,0.0233,5.272,5.149,18.15,342.79,179.64,5.39,12.1,42723,7014,0
N,N,1,7.52,190.980,0.0161,3.195,3.143,20.60,289.71,353.93,3.25,5.71,41352,9050,0
N,N,1,8.48,147.343,0.1071,3.155,2.817,13.10,305.53,188.66,3.49,5.6,39260,10366,0
N,N,1,12.15,9.450,0.1926,2.282,1.843,7.15,154.50,196.30,2.72,3.45,39620,5440,0
N,N,1,12.06,7.839,0.1740,2.37,1.958,6.09,190.56,84.58,2.78,3.65,29789,5988,0
N,N,1,12.10,10.390,0.1765,2.247,1.851,2.58,327.05,6.16,2.64,3.37,37737,7546,0
N,N,1,11.91,9.539,0.1274,2.22,1.937,6.04,8.82,53.13,2.50,3.31,36522,4377,0
N,N,1,11.92,9.785,0.1433,2.236,1.916,4.70,99.55,297.63,2.56,3.34,42122,4588,0
N,N,1,11.67,13.082,0.1274,2.214,1.932,3.73,71.45,354.32,2.50,3.29,47207,4886,0
N,N,1,12.59,,0.2555,1.948,1.450,13.09,213.30,206.73,2.45,2.72,34238,3817,0
N,N,1,11.72,13.504,0.2066,2.656,2.108,12.56,298.09,100.27,3.21,4.33,32918,9584,0
N,N,1,12.83,7.470,0.1121,2.264,2.010,4.81,325.50,110.42,2.52,3.41,32565,7673,0
N,N,1,12.50,6.573,0.0284,1.897,1.843,23.67,7.05,255.31,1.95,2.61,31344,3847,0
N,N,1,13.25,6.385,0.1089,2.202,1.963,4.86,63.58,65.62,2.44,3.27,30178,6154,0
N,N,1,12.75,8.17,0.0324,1.866,1.806,22.32,283.48,268.12,1.93,2.55,30820,6592,0
N,N,1,13.24,5.318,0.1874,2.315,1.881,6.21,336.86,72.98,2.75,3.52,25623,4132,0
N,N,1,11.14,15.140,0.2737,2.363,1.717,25.32,279.46,149.30,3.01,3.63,35299,4047,0
N,N,1,12.45,8.484,0.1290,2.196,1.912,6.19,340.42,116.44,2.48,3.25,33899,10286,0
N,N,1,12.61,,0.1016,1.854,1.666,22.89,132.99,313.12,2.04,2.52,24962,4674,0
N,N,1,12.24,10.614,0.0598,2.457,2.310,5.29,21.88,38.70,2.60,3.85,34010,9119,0
N,N,1,13.04,6.631,0.1221,2.199,1.930,6.19,44.23,3.96,2.47,3.26,32583,4978,0
N,N,1,12.25,9.934,0.2487,2.35,1.765,21.52,337.15,254.27,2.93,3.6,33950,5511,0
N,N,1,12.71,7.710,0.0563,2.188,2.065,3.96,147.43,336.16,2.31,3.24,35566,9662,0
Y,Y,1,16.08,1.5,0.5599,1.471,0.647,6.35,35.56,286.05,2.29,1.78,34041,3461,0
Y,N,1,12.54,8.48,0.5382,1.894,0.875,41.21,63.46,293.11,2.91,2.61,25252,8278,0
N,N,1,12.90,6.754,0.0519,2.174,2.061,3.13,193.57,12.67,2.29,3.21,31449,4928,0
N,N,1,13.14,4.625,0.1930,2.325,1.876,4.91,0.87,24.73,2.77,3.54,26952,3932,0
N,N,1,12.49,7.865,0.1659,2.241,1.869,4.05,252.10,25.08,2.61,3.36,33873,4852,0
N,N,1,13.40,5.956,0.1319,2.301,1.997,4.25,9.46,346.11,2.60,3.49,18296,6616,0
N,N,1,13.14,6.66,0.3454,2.379,1.558,23.98,53.62,50.33,3.20,3.67,26733,2963,0
N,N,1,14.09,3.131,0.0035,1.872,1.865,25.28,36.58,301.91,1.88,2.56,19090,3602,0
N,N,1,13.49,4.570,0.1547,2.25,1.902,2.75,1.22,350.14,2.60,3.38,25295,3670,0
N,N,1,12.46,8.736,0.1782,2.184,1.795,4.38,145.68,160.46,2.57,3.23,31851,8463,0
N,N,1,12.86,8.252,0.1111,1.887,1.678,33.99,306.02,38.50,2.10,2.59,17421,6528,0
N,N,1,12.87,8.035,0.1662,2.256,1.881,7.51,102.04,180.04,2.63,3.39,27081,6109,0
N,N,1,13.74,4.313,0.1545,2.208,1.867,3.07,11.40,350.92,2.55,3.28,26929,3672,0
N,N,1,13.56,5.833,0.1171,2.209,1.950,2.54,343.83,96.21,2.47,3.28,31715,5703,0
N,N,1,12.25,8.013,0.1670,2.594,2.161,14.35,37.16,26.75,3.03,4.18,24945,4240,0
N,N,1,13.47,5.197,0.2552,2.334,1.738,1.77,218.04,155.45,2.93,3.57,21316,3956,0
N,N,1,13.96,,0.1681,1.909,1.588,24.99,179.83,102.25,2.23,2.64,16687,3737,0
N,N,1,12.29,9.238,0.0675,2.225,2.075,4.14,228.70,233.71,2.38,3.32,33359,4679,0
N,N,1,12.58,7.883,0.0799,2.269,2.087,8.40,359.90,100.95,2.45,3.42,31030,4196,0
N,N,1,13.53,3.259,0.0542,1.878,1.776,22.86,125.27,358.29,1.98,2.57,16934,3484,0
N,N,1,12.92,7.481,0.1000,2.24,2.016,6.99,47.93,160.69,2.46,3.35,35545,7456,0
N,N,1,13.66,4.408,0.1646,2.279,1.904,1.09,123.41,313.32,2.65,3.44,21635,4072,0
N,N,1,12.53,7.116,0.0801,2.24,2.060,3.43,172.73,309.83,2.42,3.35,26206,7159,0
N,N,2,13.02,,0.1380,1.904,1.641,22.91,182.55,284.12,2.17,2.63,32570,4038,0
N,N,1,12.85,,0.1078,2.384,2.127,5.55,158.21,64.83,2.64,3.68,26730,4942,0
N,N,1,13.60,,0.2348,2.255,1.726,4.05,349.07,22.82,2.78,3.39,37947,11495,0
N,N,1,13.49,5.438,0.1135,2.244,1.989,3.59,319.75,277.56,2.50,3.36,26979,6369,0
N,N,1,13.76,,0.2326,2.228,1.710,5.71,275.08,91.26,2.75,3.33,26659,3515,0
N,N,1,12.85,6.641,0.1690,2.232,1.855,5.71,119.79,237.65,2.61,3.34,25060,4780,0
N,N,1,13.46,5.065,0.1739,2.245,1.855,3.52,329.35,81.73,2.64,3.36,31179,4891,0
N,N,1,12.83,6.879,0.1161,2.169,1.917,2.45,246.87,12.10,2.42,3.19,29904,4975,0
N,N,1,12.81,6.767,0.2152,2.333,1.831,22.69,334.45,70.81,2.83,3.56,16426,4235,0
N,N,1,12.87,6.804,0.1393,2.258,1.943,5.77,28.32,335.25,2.57,3.39,25296,5286,0
N,N,1,13.10,6.426,0.1578,2.251,1.896,5.90,100.96,168.22,2.61,3.38,32368,9396,0
N,N,1,13.35,4.910,0.0825,2.245,2.060,1.41,48.48,151.86,2.43,3.36,26901,4227,0
N,N,1,13.46,5.878,0.1387,2.448,2.109,2.54,46.38,196.89,2.79,3.83,16981,4920,0
N,N,1,12.78,,0.2100,2.324,1.836,4.93,10.57,314.06,2.81,3.54,38819,4233,0
N,N,1,13.73,,0.1367,2.243,1.936,5.04,204.07,232.23,2.55,3.36,19802,3962,0
N,N,1,13.61,4.938,0.1893,2.237,1.814,7.71,195.49,166.54,2.66,3.35,43232,3840,0
Y,Y,2,14.10,4.9,0.4231,1.769,1.020,22.14,336.06,27.88,2.52,2.35,16437,8448,0
N,N,1,12.86,4.662,0.0670,1.892,1.765,24.90,96.35,32.63,2.02,2.6,25598,13497,0
N,N,1,13.39,6.223,0.0576,2.283,2.152,2.75,312.22,105.09,2.41,3.45,26655,4004,0
N,N,1,13.74,5.038,0.0536,1.817,1.720,21.14,29.76,218.73,1.91,2.45,15341,3505,0
N,N,1,13.83,6.637,0.0917,2.316,2.104,8.08,335.87,92.54,2.53,3.52,36801,7740,0
N,N,1,13.44,5.062,0.1158,2.253,1.992,3.38,342.75,260.19,2.51,3.38,17129,4548,0
N,N,1,12.91,7.745,0.1876,2.393,1.944,4.51,336.55,74.40,2.84,3.7,32472,6782,0
N,N,1,12.38,9.071,0.1344,2.373,2.054,9.68,55.58,159.54,2.69,3.66,34253,4074,0
N,N,1,9.84,63.885,0.0911,5.208,4.734,8.05,43.54,27.68,5.68,11.9,9502,3950,0
N,N,1,12.89,6.655,0.1316,2.313,2.008,5.79,237.23,102.36,2.62,3.52,35809,7386,0
N,N,1,13.39,6.243,0.0702,2.214,2.059,4.82,90.88,35.79,2.37,3.3,26913,7165,0
Y,Y,1,16.50,1.5,0.5410,2.2,1.009,13.53,82.06,204.30,3.39,3.26,14475,1112,0
N,N,1,13.06,6.412,0.1836,2.346,1.915,7.09,13.27,45.14,2.78,3.59,19877,4999,0
N,N,2,13.63,4.663,0.1100,2.236,1.990,5.38,295.67,174.40,2.48,3.34,25175,9464,0
N,N,1,12.86,5.924,0.0931,2.415,2.190,5.25,271.33,333.69,2.64,3.75,19589,5493,0
N,N,1,13.43,5.161,0.2195,2.293,1.790,23.68,63.19,51.28,2.80,3.47,15556,3997,0
N,N,1,13.52,6.252,0.1597,2.274,1.911,5.22,46.00,359.91,2.64,3.43,18142,8304,0
N,N,1,12.97,7.972,0.0788,2.398,2.209,6.55,214.44,32.42,2.59,3.71,19137,7263,0
N,N,1,12.73,8.628,0.0982,2.334,2.105,8.11,171.52,185.95,2.56,3.57,25509,6622,0
N,N,1,12.91,5.021,0.1336,1.893,1.640,23.36,250.01,267.57,2.15,2.6,14317,5009,0
N,N,1,12.94,8.021,0.2548,2.561,1.909,14.21,343.13,91.30,3.21,4.1,15680,7511,0
N,N,1,13.35,5.930,0.0307,2.376,2.303,2.40,26.13,61.53,2.45,3.66,31494,5555,0
N,N,1,13.07,6.720,0.1735,2.339,1.933,5.41,269.99,152.31,2.74,3.58,17332,8583,0
N,N,1,14.08,4.141,0.1875,2.259,1.835,3.29,210.79,198.22,2.68,3.4,25283,3857,0
N,N,1,13.04,6.790,0.2198,2.258,1.762,5.30,251.84,50.96,2.75,3.39,34190,4706,0
N,N,1,12.91,7.433,0.1305,2.526,2.196,5.44,214.75,16.50,2.86,4.01,18169,6426,0
N,N,1,13.30,,0.2502,2.632,1.974,4.03,253.77,108.87,3.29,4.27,9593,4362,0
N,N,1,12.95,7.675,0.2494,2.368,1.777,9.27,184.37,183.89,2.96,3.64,25656,3993,0
N,N,1,11.70,12.296,0.1773,2.628,2.162,14.03,44.56,325.55,3.09,4.26,23499,4212,0
N,N,1,13.38,,0.1660,2.249,1.876,6.14,13.03,27.01,2.62,3.37,32267,3792,0
N,N,1,13.23,5.590,0.1019,2.238,2.010,4.72,34.35,172.81,2.47,3.35,26063,4221,0
N,N,1,14.56,3.775,0.1994,2.197,1.759,2.56,218.30,153.34,2.63,3.26,26422,5405,0
N,N,1,13.11,6.471,0.0644,2.425,2.269,7.16,88.45,317.49,2.58,3.78,16443,4118,0
N,N,1,14.14,4.433,0.0927,2.167,1.966,2.26,88.43,10.90,2.37,3.19,18243,5407,0
N,N,1,13.41,5.042,0.3346,2.317,1.541,21.94,330.74,110.53,3.09,3.53,16439,9534,0
N,N,1,13.89,2.093,0.0774,1.921,1.772,21.35,283.30,225.06,2.07,2.66,14184,3207,0
N,N,1,13.22,17.359,0.1770,2.769,2.279,8.02,349.71,53.74,3.26,4.61,26299,8055,0
N,N,1,13.69,,0.1204,2.342,2.061,2.47,294.30,216.61,2.62,3.59,18846,4514,0
N,N,1,14.13,,0.1526,2.344,1.987,7.96,110.35,88.28,2.70,3.59,18862,9161,0
N,N,1,12.54,9.356,0.1370,2.55,2.201,8.71,161.34,316.13,2.90,4.07,21425,12482,0
N,N,1,13.20,6.294,0.0202,2.379,2.331,4.78,65.93,27.06,2.43,3.67,34300,9278,0
N,N,1,13.44,7.389,0.0196,2.264,2.219,2.25,250.41,222.80,2.31,3.41,17698,6282,0
N,N,2,13.16,6.827,0.2341,2.34,1.792,24.51,230.18,42.13,2.89,3.58,13782,6352,0
N,N,1,13.99,4.818,0.0704,1.859,1.728,19.44,232.90,239.58,1.99,2.53,13926,5370,0
N,N,1,14.04,1.777,0.0601,1.945,1.828,23.71,76.50,108.67,2.06,2.71,14934,3516,0
N,N,1,13.47,3.282,0.1952,2.357,1.897,7.25,115.70,118.42,2.82,3.62,19598,4456,0
N,N,1,13.91,3.583,0.1300,2.262,1.968,4.32,277.15,110.61,2.56,3.4,17200,3455,0
N,N,1,15.17,1.535,0.0684,1.96,1.826,22.11,187.49,94.46,2.09,2.74,14802,5474,0
